STARLINK-31156          
1 58743U 24005R   26068.45950290  .00000176  00000+0  16221-4 0  9993
2 58743  42.9990 220.6172 0001002 291.5066  68.5679 15.26738284120464
TANSTAAFL-2             
1 62378U 24247B   26067.20753490  .00013897  00000+0  50872-3 0  9998
2 62378  44.9880 125.0934 0003072 298.8909  61.1666 15.28016845 67506
